{
  "type": "FeatureCollection",
  "features": [
    {
      "type": "Feature",
      "properties": {
        "norad_id": 35142,
        "name": "FENGYUN 1C DEB",
        "group": "fengyun-1c-debris",
        "lat": 79.34349065904146,
        "lon": -141.6561464525426,
        "alt_km": 950.6476143195414,
        "timestamp": "2025-12-14T09:36:23.324271+00:00",
        "meta_object_name": "FENGYUN 1C DEB",
        "meta_object_id": "1999-025DLW",
        "meta_epoch": "2025-12-10T17:57:11.594304",
        "meta_mean_motion": 13.90505391,
        "meta_eccentricity": 0.01075768,
        "meta_inclination": 99.0447,
        "meta_ra_of_asc_node": 336.9569,
        "meta_arg_of_pericenter": 219.5001,
        "meta_mean_anomaly": 324.8218,
        "meta_ephemeris_type": 0,
        "meta_classification_type": "U",
        "meta_norad_cat_id": 35142,
        "meta_element_set_no": 999,
        "meta_rev_at_epoch": 85661,
        "meta_bstar": 0.00028188701,
        "meta_mean_motion_dot": 3.24e-06,
        "meta_mean_motion_ddot": 0,
        "tle_line1": "1 35142U 99025DLW 25344.74805086  .00000324  00000+0  28189-3 0  9995",
        "tle_line2": "2 35142  99.0447 336.9569 0107576 219.5001 324.8218 13.90505391856615"
      },
      "geometry": {
        "type": "Point",
        "coordinates": [
          -141.6561464525426,
          79.34349065904146
        ]
      }
    },
    {
      "type": "Feature",
      "properties": {
        "norad_id": 35144,
        "name": "FENGYUN 1C DEB",
        "group": "fengyun-1c-debris",
        "lat": 47.227318088113684,
        "lon": 94.30259164587945,
        "alt_km": 679.5729875456982,
        "timestamp": "2025-12-14T09:36:23.324281+00:00",
        "meta_object_name": "FENGYUN 1C DEB",
        "meta_object_id": "1999-025DLY",
        "meta_epoch": "2025-12-11T13:54:55.730016",
        "meta_mean_motion": 14.59153521,
        "meta_eccentricity": 0.0026594,
        "meta_inclination": 98.6992,
        "meta_ra_of_asc_node": 100.875,
        "meta_arg_of_pericenter": 5.3698,
        "meta_mean_anomaly": 354.778,
        "meta_ephemeris_type": 0,
        "meta_classification_type": "U",
        "meta_norad_cat_id": 35144,
        "meta_element_set_no": 999,
        "meta_rev_at_epoch": 65196,
        "meta_bstar": 0.0041915394,
        "meta_mean_motion_dot": 0.00019845,
        "meta_mean_motion_ddot": 0,
        "tle_line1": "1 35144U 99025DLY 25345.57981169  .00019845  00000+0  41915-2 0  9995",
        "tle_line2": "2 35144  98.6992 100.8750 0026594   5.3698 354.7780 14.59153521651967"
      },
      "geometry": {
        "type": "Point",
        "coordinates": [
          94.30259164587945,
          47.227318088113684
        ]
      }
    },
    {
      "type": "Feature",
      "properties": {
        "norad_id": 35147,
        "name": "FENGYUN 1C DEB",
        "group": "fengyun-1c-debris",
        "lat": -31.287524297495853,
        "lon": 67.81009031689149,
        "alt_km": 666.4705619920223,
        "timestamp": "2025-12-14T09:36:23.324291+00:00",
        "meta_object_name": "FENGYUN 1C DEB",
        "meta_object_id": "1999-025DMB",
        "meta_epoch": "2025-12-13T10:56:53.783520",
        "meta_mean_motion": 14.7433766,
        "meta_eccentricity": 0.00273439,
        "meta_inclination": 99.489,
        "meta_ra_of_asc_node": 60.8722,
        "meta_arg_of_pericenter": 196.8484,
        "meta_mean_anomaly": 163.1814,
        "meta_ephemeris_type": 0,
        "meta_classification_type": "U",
        "meta_norad_cat_id": 35147,
        "meta_element_set_no": 999,
        "meta_rev_at_epoch": 74315,
        "meta_bstar": 0.0047661501,
        "meta_mean_motion_dot": 0.0003184,
        "meta_mean_motion_ddot": 0,
        "tle_line1": "1 35147U 99025DMB 25347.45617805  .00031840  00000+0  47662-2 0  9994",
        "tle_line2": "2 35147  99.4890  60.8722 0027343 196.8484 163.1814 14.74337660743150"
      },
      "geometry": {
        "type": "Point",
        "coordinates": [
          67.81009031689149,
          -31.287524297495853
        ]
      }
    },
    {
      "type": "Feature",
      "properties": {
        "norad_id": 35152,
        "name": "FENGYUN 1C DEB",
        "group": "fengyun-1c-debris",
        "lat": -14.838335708149895,
        "lon": -11.489050286488357,
        "alt_km": 1124.05952177568,
        "timestamp": "2025-12-14T09:36:23.324301+00:00",
        "meta_object_name": "FENGYUN 1C DEB",
        "meta_object_id": "1999-025DMG",
        "meta_epoch": "2025-12-09T06:32:50.767584",
        "meta_mean_motion": 13.76426124,
        "meta_eccentricity": 0.019481,
        "meta_inclination": 99.8191,
        "meta_ra_of_asc_node": 165.8523,
        "meta_arg_of_pericenter": 24.4192,
        "meta_mean_anomaly": 336.6036,
        "meta_ephemeris_type": 0,
        "meta_classification_type": "U",
        "meta_norad_cat_id": 35152,
        "meta_element_set_no": 999,
        "meta_rev_at_epoch": 62145,
        "meta_bstar": 0.0008876,
        "meta_mean_motion_dot": 9.5e-06,
        "meta_mean_motion_ddot": 0,
        "tle_line1": "1 35152U 99025DMG 25343.27280981  .00000950  00000+0  88760-3 0  9990",
        "tle_line2": "2 35152  99.8191 165.8523 0194810  24.4192 336.6036 13.76426124621451"
      },
      "geometry": {
        "type": "Point",
        "coordinates": [
          -11.489050286488357,
          -14.838335708149895
        ]
      }
    },
    {
      "type": "Feature",
      "properties": {
        "norad_id": 35153,
        "name": "FENGYUN 1C DEB",
        "group": "fengyun-1c-debris",
        "lat": -80.11877079874253,
        "lon": -55.498737130496984,
        "alt_km": 771.7595001896407,
        "timestamp": "2025-12-14T09:36:23.324311+00:00",
        "meta_object_name": "FENGYUN 1C DEB",
        "meta_object_id": "1999-025DMH",
        "meta_epoch": "2025-12-13T11:11:19.290336",
        "meta_mean_motion": 14.73743597,
        "meta_eccentricity": 0.01712095,
        "meta_inclination": 98.9023,
        "meta_ra_of_asc_node": 239.3405,
        "meta_arg_of_pericenter": 80.9224,
        "meta_mean_anomaly": 281.131,
        "meta_ephemeris_type": 0,
        "meta_classification_type": "U",
        "meta_norad_cat_id": 35153,
        "meta_element_set_no": 999,
        "meta_rev_at_epoch": 97228,
        "meta_bstar": 0.00060411508,
        "meta_mean_motion_dot": 4.926e-05,
        "meta_mean_motion_ddot": 0,
        "tle_line1": "1 35153U 99025DMH 25347.46619549  .00004926  00000+0  60412-3 0  9993",
        "tle_line2": "2 35153  98.9023 239.3405 0171209  80.9224 281.1310 14.73743597972285"
      },
      "geometry": {
        "type": "Point",
        "coordinates": [
          -55.498737130496984,
          -80.11877079874253
        ]
      }
    },
    {
      "type": "Feature",
      "properties": {
        "norad_id": 35154,
        "name": "FENGYUN 1C DEB",
        "group": "fengyun-1c-debris",
        "lat": -69.14590023214907,
        "lon": -95.85563548869,
        "alt_km": 943.3769535709353,
        "timestamp": "2025-12-14T09:36:23.324321+00:00",
        "meta_object_name": "FENGYUN 1C DEB",
        "meta_object_id": "1999-025DMJ",
        "meta_epoch": "2025-12-13T13:48:37.186560",
        "meta_mean_motion": 14.18899673,
        "meta_eccentricity": 0.01793001,
        "meta_inclination": 99.4215,
        "meta_ra_of_asc_node": 109.1082,
        "meta_arg_of_pericenter": 40.1102,
        "meta_mean_anomaly": 321.3151,
        "meta_ephemeris_type": 0,
        "meta_classification_type": "U",
        "meta_norad_cat_id": 35154,
        "meta_element_set_no": 999,
        "meta_rev_at_epoch": 64589,
        "meta_bstar": 0.00040128256,
        "meta_mean_motion_dot": 9.31e-06,
        "meta_mean_motion_ddot": 0,
        "tle_line1": "1 35154U 99025DMJ 25347.57543040  .00000931  00000+0  40128-3 0  9992",
        "tle_line2": "2 35154  99.4215 109.1082 0179300  40.1102 321.3151 14.18899673645893"
      },
      "geometry": {
        "type": "Point",
        "coordinates": [
          -95.85563548869,
          -69.14590023214907
        ]
      }
    },
    {
      "type": "Feature",
      "properties": {
        "norad_id": 35155,
        "name": "FENGYUN 1C DEB",
        "group": "fengyun-1c-debris",
        "lat": 14.700793919371907,
        "lon": -2.2457217218133474,
        "alt_km": 817.2616751268552,
        "timestamp": "2025-12-14T09:36:23.324333+00:00",
        "meta_object_name": "FENGYUN 1C DEB",
        "meta_object_id": "1999-025DMK",
        "meta_epoch": "2025-12-13T11:32:29.448096",
        "meta_mean_motion": 14.19285709,
        "meta_eccentricity": 0.00260991,
        "meta_inclination": 98.5012,
        "meta_ra_of_asc_node": 359.121,
        "meta_arg_of_pericenter": 70.7543,
        "meta_mean_anomaly": 289.6454,
        "meta_ephemeris_type": 0,
        "meta_classification_type": "U",
        "meta_norad_cat_id": 35155,
        "meta_element_set_no": 999,
        "meta_rev_at_epoch": 72724,
        "meta_bstar": 0.00090034288,
        "meta_mean_motion_dot": 1.854e-05,
        "meta_mean_motion_ddot": 0,
        "tle_line1": "1 35155U 99025DMK 25347.48089639  .00001854  00000+0  90034-3 0  9998",
        "tle_line2": "2 35155  98.5012 359.1210 0026099  70.7543 289.6454 14.19285709727245"
      },
      "geometry": {
        "type": "Point",
        "coordinates": [
          -2.2457217218133474,
          14.700793919371907
        ]
      }
    }
  ]
}